{
    "links": {
        "self": "http://www.neowsapp.com/rest/v1/neo/54016484?api_key=iIulBulltgU6a56xZRHN4H3l9WmuAYTsLGpBGhQ2"
    },
    "id": "54016484",
    "neo_reference_id": "54016484",
    "name": "(2020 GZ1)",
    "designation": "2020 GZ1",
    "nasa_jpl_url": "http://ssd.jpl.nasa.gov/sbdb.cgi?sstr=54016484",
    "absolute_magnitude_h": 25.984,
    "estimated_diameter": {
        "kilometers": {
            "estimated_diameter_min": 0.0168948748,
            "estimated_diameter_max": 0.0377780884
        },
        "meters": {
            "estimated_diameter_min": 16.8948747547,
            "estimated_diameter_max": 37.778088423
        },
        "miles": {
            "estimated_diameter_min": 0.0104979852,
            "estimated_diameter_max": 0.0234742086
        },
        "feet": {
            "estimated_diameter_min": 55.4293808904,
            "estimated_diameter_max": 123.9438636216
        }
    },
    "is_potentially_hazardous_asteroid": false,
    "close_approach_data": [
        {
            "close_approach_date": "2020-04-01",
            "close_approach_date_full": "2020-Apr-01 06:09",
            "epoch_date_close_approach": 1585721340000,
            "relative_velocity": {
                "kilometers_per_second": "28.6583278803",
                "kilometers_per_hour": "103169.9803689317",
                "miles_per_hour": "64105.8136353509"
            },
            "miss_distance": {
                "astronomical": "0.0143099375",
                "lunar": "5.5665656875",
                "kilometers": "2140736.169833125",
                "miles": "1330191.774122125"
            },
            "orbiting_body": "Earth"
        }
    ],
    "orbital_data": {
        "orbit_id": "1",
        "orbit_determination_date": "2020-04-06 18:12:29",
        "first_observation_date": "2020-04-03",
        "last_observation_date": "2020-04-04",
        "data_arc_in_days": 1,
        "observations_used": 8,
        "orbit_uncertainty": "9",
        "minimum_orbit_intersection": ".00235249",
        "jupiter_tisserand_invariant": "2.877",
        "epoch_osculation": "2458943.5",
        "eccentricity": ".8542633524573804",
        "semi_major_axis": "2.39064984772053",
        "inclination": "6.280019360852461",
        "ascending_node_longitude": "193.5862603035798",
        "orbital_period": "1350.120038295312",
        "perihelion_distance": ".3484052942550642",
        "perihelion_argument": "244.3118286498785",
        "aphelion_distance": "4.432894401185997",
        "perihelion_time": "2458898.463144277864",
        "mean_anomaly": "12.00876040654886",
        "mean_motion": ".2666429575066104",
        "equinox": "J2000",
        "orbit_class": {
            "orbit_class_type": "APO",
            "orbit_class_description": "Near-Earth asteroid orbits which cross the Earth’s orbit similar to that of 1862 Apollo",
            "orbit_class_range": "a (semi-major axis) > 1.0 AU; q (perihelion) < 1.017 AU"
        }
    },
    "is_sentry_object": false
}